ORBCOMM FM16            
1 25417U 98046E   25192.90031735  .00000641  00000+0  25179-3 0  9990
2 25417  44.9945  55.4775 0005203  61.6049 298.5323 14.38960622407818
ORBCOMM FM14            
1 25419U 98046G   25192.89415482  .00000557  00000+0  22481-3 0  9994
2 25419  44.9965  58.8913 0003676  54.8338 305.2854 14.38965059407779
ORBCOMM FM13            
1 25420U 98046H   25192.96030757  .00000516  00000+0  21674-3 0  9990
2 25420  44.9980  66.7954 0005815  40.3746 319.7532 14.37711749406801
ORBCOMM FM21            
1 25475U 98053A   25192.90275335  .00000460  00000+0  19972-3 0  9991
2 25475  45.0071 152.4458 0003354 323.8365  36.2255 14.37383094400803
ORBCOMM FM22            
1 25476U 98053B   25192.92179741  .00000502  00000+0  20944-3 0  9996
2 25476  45.0064 147.0082 0005074 334.6167  25.4431 14.38429834400833
ORBCOMM FM23            
1 25477U 98053C   25192.90033327  .00000463  00000+0  20017-3 0  9991
2 25477  45.0070 154.5458 0004363 326.3258  33.7312 14.37567703400950
